IRIDIUM 116             
1 43072U 17083C   25340.16549920  .00000360  00000+0  12136-3 0  9999
2 43072  86.3967  42.6811 0002443 101.7594 258.3876 14.34217258416501
IRIDIUM 130             
1 43073U 17083D   25340.13377872  .00000448  00000+0  15273-3 0  9994
2 43073  86.3983  42.9509 0002183 106.3513 253.7923 14.34222484416442
IRIDIUM 151             
1 43074U 17083E   25340.17818279  .00000307  00000+0  10261-3 0  9996
2 43074  86.3978  42.7292 0002245  96.3427 263.8025 14.34219293416477
IRIDIUM 134             
1 43075U 17083F   25340.14646386  .00000481  00000+0  16460-3 0  9992
2 43075  86.3975  42.7477 0002163 102.4481 257.6957 14.34222517416432
IRIDIUM 137             
1 43076U 17083G   25340.15915760  .00000405  00000+0  13762-3 0  9997
2 43076  86.3981  42.8317 0002684  95.6472 264.5030 14.34217345416505
IRIDIUM 141             
1 43077U 17083H   25340.08304473  .00000173  00000+0  54824-4 0  9990
2 43077  86.3971  42.7046 0002043  95.5056 264.6373 14.34219044416496
IRIDIUM 153             
1 43078U 17083J   25340.03523468  .00000524  00000+0  18004-3 0  9992
2 43078  86.3977  11.2156 0001823  91.5883 268.5521 14.34220423417598
IRIDIUM 131             
1 43079U 17083K   25340.14012871  .00000094  00000+0  26371-4 0  9995
2 43079  86.3978  42.8541 0002059  94.2444 265.8988 14.34218272416431
